satname,norad_id,inclination_deg,eccentricity,mean_motion_rev_per_day,perigee_km,apogee_km,l1,l2
STARLINK-1567,46038,53.0888,0.0001255,15.33610189,464.19291216511283,465.9105525369332,1 46038U 20055M   26076.91670139  .01958098  00000+0  53814-1 0  9991,2 46038  53.0888  88.3546 0001255  93.0838 322.7356 15.33610189  5834
STARLINK-1569,46039,53.1474,8.49e-05,15.28222076,480.5448111598298,481.7095142146545,1 46039U 20055N   26076.91670139  .00127073  00000+0  44944-2 0  9997,2 46039  53.1474  88.4745 0000849  95.2664 240.6795 15.28222076  5785
STARLINK-1582,46043,53.1554,0.0001676,15.297898,475.2912992250149,477.588953477768,1 46043U 20055S   26076.91670139  .00132857  00000+0  44745-2 0  9997,2 46043  53.1554  88.4786 0001676 274.2420  19.3979 15.29789800  5826
STARLINK-1591,46045,53.142,0.0001908,15.26920235,483.7158897350064,486.3348724996413,1 46045U 20055U   26076.83335647  .00106252  00000+0  39227-2 0  9991,2 46045  53.1420  88.8284 0001908  59.3881  15.9267 15.26920235  5725
STARLINK-1524,46047,53.1581,0.000152,15.30207379,474.15133097828857,476.23474330958015,1 46047U 20055W   26076.29627527  .00006404  00000+0  22812-3 0  9995,2 46047  53.1581  78.5076 0001520  98.3271 261.7902 15.30207379310230
STARLINK-1527,46048,53.1585,0.0001364,15.30182208,474.33338917062156,476.20299810744655,1 46048U 20055X   26076.43323682  .00007496  00000+0  26509-3 0  9996,2 46048  53.1585  77.9703 0001364  77.6387 282.4766 15.30182208310230
STARLINK-1540,46051,53.1621,0.0001538,15.30194984,474.17599848036934,476.28409418382216,1 46051U 20055AA  26076.39107508 -.00000345  00000+0  48574-6 0  9998,2 46051  53.1621  78.0710 0001538  96.2647 263.8529 15.30194984310261
STARLINK-1541,46052,53.1613,0.0001579,15.30186317,474.1737739525752,476.3380754381951,1 46052U 20055AB  26076.18460223 -.00002333  00000+0 -66676-4 0  9993,2 46052  53.1613  79.0704 0001579  92.2182 267.8999 15.30186317310190
STARLINK-1543,46053,53.1605,0.0001523,15.30181333,474.2270322742934,476.31458029208716,1 46053U 20055AC  26076.19092872  .00000991  00000+0  45600-4 0  9996,2 46053  53.1605  79.0678 0001523 101.4889 258.6283 15.30181333310229
STARLINK-1548,46054,53.1611,0.0001667,15.30140621,474.2498867976201,476.5348534896257,1 46054U 20055AD  26076.39426172  .00011472  00000+0  39960-3 0  9990,2 46054  53.1611  78.1238 0001667 100.6740 259.4448 15.30140621310255
STARLINK-1554,46055,53.162,0.0001495,15.30191256,474.21659751398784,476.2657575890762,1 46055U 20055AE  26076.39216037  .00001118  00000+0  49885-4 0  9992,2 46055  53.1620  78.2587 0001495  95.9339 264.1833 15.30191256310254
STARLINK-1564,46058,53.1616,0.000161,15.30169928,474.2014563217799,476.4082646008492,1 46058U 20055AH  26076.39011447  .00003503  00000+0  13045-3 0  9991,2 46058  53.1616  78.6010 0001610  96.7718 263.3466 15.30169928310249
STARLINK-1570,46059,53.1592,0.0001096,15.30185249,474.50798138620667,476.0102458143083,1 46059U 20055AJ  26076.28888842 -.00002509  00000+0 -72644-4 0  9999,2 46059  53.1592  78.6123 0001096  85.7053 274.4073 15.30185249310191
STARLINK-1572,46060,53.1571,0.0001287,15.30168792,474.4262140617566,476.19029086974115,1 46060U 20055AK  26076.83335647  .00048465  00000+0  16394-2 0  9999,2 46060  53.1571  76.2903 0001287  96.2983 291.6259 15.30168792  5799
STARLINK-1573,46061,53.1601,0.0001357,15.30194556,474.3013221886249,476.16132635183203,1 46061U 20055AL  26076.40372259  .00000158  00000+0  17450-4 0  9996,2 46061  53.1601  78.0310 0001357  70.4206 289.6941 15.30194556310258
STARLINK-1577,46063,53.1595,0.0001488,15.30213392,474.1553107748314,476.1948564509139,1 46063U 20055AN  26076.43005873  .00012043  00000+0  41789-3 0  9993,2 46063  53.1595  77.8812 0001488  82.5773 277.5397 15.30213392310255
STARLINK-1583,46064,53.1602,0.0001148,15.30248833,474.28251868157895,475.8560148404267,1 46064U 20055AP  26076.85773219  .00016235  00000+0  55823-3 0  9997,2 46064  53.1602  75.9261 0001148  87.8268 272.2864 15.30248833310318
STARLINK-1525,46066,53.0567,0.0001699,15.22860732,496.0486402120878,498.3848854206917,1 46066U 20055AR  26076.83335647  .00805193  00000+0  31347-1 0  9998,2 46066  53.0567  59.2218 0001699  89.3653 163.9771 15.22860732  5685
STARLINK-1536,46070,53.0573,0.0001346,15.06392115,546.3035692643334,548.1678796017513,1 46070U 20055AV  26076.24729467 -.00001711  00000+0 -96043-4 0  9998,2 46070  53.0573  62.6920 0001346  90.5916 269.5227 15.06392115310450
STARLINK-1542,46073,53.0553,0.0001458,15.06412882,546.1623666815885,548.1817868083681,1 46073U 20055AY  26076.23992688  .00002239  00000+0  16909-3 0  9993,2 46073  53.0553  62.7240 0001458  89.8283 270.2874 15.06412882310449
STARLINK-1549,46074,53.0557,0.0001158,15.06407396,546.3869376181365,547.9908430943433,1 46074U 20055AZ  26076.22518298 -.00000095  00000+0  12540-4 0  9991,2 46074  53.0557  62.7906 0001158  92.1575 267.9546 15.06407396310433
STARLINK-1551,46075,53.0572,0.0001373,15.06392453,546.2838349700487,548.1855420357115,1 46075U 20055BA  26076.25098650 -.00003208  00000+0 -19660-3 0  9999,2 46075  53.0572  62.6748 0001373  87.5913 272.5234 15.06392453310441
STARLINK-1552,46076,53.0553,0.0001448,15.06392255,546.2325014411299,548.2380892578631,1 46076U 20055BB  26076.21044435  .00000106  00000+0  25986-4 0  9999,2 46076  53.0553  62.8573 0001448  89.8878 270.2277 15.06392255310427
STARLINK-1559,46077,53.0263,0.0004594,15.30452724,471.31250161828757,477.6086682793393,1 46077U 20055BC  26076.59496988  .00049130  00000+0  16466-2 0  9996,2 46077  53.0263  37.1212 0004594  68.7912 291.3577 15.30452724310793
STARLINK-1566,46079,53.054,0.0001308,15.0642915,546.2163949214746,548.028042733119,1 46079U 20055BE  26076.22886383  .00006389  00000+0  44706-3 0  9998,2 46079  53.0540  62.7729 0001308  92.5703 267.5435 15.06429150310443
STARLINK-1568,46080,53.0638,0.0006205,15.47184742,420.74486976785465,429.18752083322215,1 46080U 20055BF  26076.76374313  .00026343  00000+0  51654-3 0  9996,2 46080  53.0638 354.4232 0006205 141.4591 218.6860 15.47184742311443
STARLINK-1578,46082,53.0554,0.0001034,15.06402411,546.4880883035503,547.9202488572128,1 46082U 20055BH  26076.17726931  .00000323  00000+0  40553-4 0  9997,2 46082  53.0554  63.0051 0001034  95.7859 264.3248 15.06402411310434
STARLINK-1579,46083,53.0559,0.0001374,15.06392683,546.2824376070657,548.1855295533542,1 46083U 20055BJ  26076.21317909  .00000108  00000+0  26133-4 0  9993,2 46083  53.0559  62.8355 0001374  92.7070 267.4076 15.06392683310435
